[{"OBJECT_NAME":"STARLINK-31326","OBJECT_ID":"2024-020B","EPOCH":"2026-03-09T22:27:48.001536","MEAN_MOTION":15.30178575,"ECCENTRICITY":9.496e-5,"INCLINATION":53.1604,"RA_OF_ASC_NODE":321.6402,"ARG_OF_PERICENTER":95.7811,"MEAN_ANOMALY":264.3299,"EPHEMERIS_TYPE":0,"CLASSIFICATION_TYPE":"U","NORAD_CAT_ID":58877,"ELEMENT_SET_NO":999,"REV_AT_EPOCH":11810,"BSTAR":-3.6304298e-5,"MEAN_MOTION_DOT":-1.433e-5,"MEAN_MOTION_DDOT":0},{"OBJECT_NAME":"TOMORROW-S1","OBJECT_ID":"2024-149M","EPOCH":"2026-03-09T17:23:34.533600","MEAN_MOTION":15.31198363,"ECCENTRICITY":0.00018188,"INCLINATION":97.3791,"RA_OF_ASC_NODE":149.6044,"ARG_OF_PERICENTER":207.204,"MEAN_ANOMALY":152.9106,"EPHEMERIS_TYPE":0,"CLASSIFICATION_TYPE":"U","NORAD_CAT_ID":60479,"ELEMENT_SET_NO":999,"REV_AT_EPOCH":8686,"BSTAR":0.0002885603,"MEAN_MOTION_DOT":8.62e-5,"MEAN_MOTION_DDOT":0}]
